STARLINK-32483          
1 61856U 24202M   26068.52349862  .00000449  00000+0  25849-4 0  9995
2 61856  43.0034 238.8052 0001323 272.4638  87.6062 15.27569381 75313
TEVEL2-7                
1 63238U 25052AE  26068.66113295  .00019244  00000+0  69668-3 0  9998
2 63238  97.4054 324.3041 0008105 124.6830 235.5175 15.28414096 54803
